start=new Date('2022-11-20T00:00:00.000Z').valueOf();
sats=[{"MEAN_MOTION_DOT":"0.00027498","CENTER_NAME":"EARTH","SITE":"AFETR","TLE_LINE1":"1 51967U 22025M   22323.11111086  .00027498  00000-0  37243-3 0  9992","FILE":"3663316","LAUNCH_DATE":"2022-03-09","EPHEMERIS_TYPE":"0","SEMIMAJOR_AXIS":"6773.019","PERIOD":"92.456","PERIAPSIS":"391.736","OBJECT_NAME":"STARLINK-3695","REF_FRAME":"TEME","ECCENTRICITY":"0.00046480","INCLINATION":"53.2091","TIME_SYSTEM":"UTC","OBJECT_TYPE":"PAYLOAD","MEAN_MOTION_DDOT":"0.0000000000000","ARG_OF_PERICENTER":"106.9876","MEAN_MOTION":"15.57504610","CLASSIFICATION_TYPE":"U","RA_OF_ASC_NODE":"350.6573","ELEMENT_SET_NO":"999","APOAPSIS":"398.032","EPOCH":"2022-11-19T02:39:59.978304","NORAD_CAT_ID":"51967","BSTAR":"0.00037243000000","TLE_LINE2":"2 51967  53.2091 350.6573 0004648 106.9876 253.1647 15.57504610 39822","MEAN_ANOMALY":"253.1647","COUNTRY_CODE":"US","REV_AT_EPOCH":"3982","OBJECT_ID":"2022-025M","DECAY_DATE":null,"MEAN_ELEMENT_THEORY":"SGP4","GP_ID":"218206654","RCS_SIZE":"LARGE"},{"APOAPSIS":"541.178","EPOCH":"2022-11-19T12:50:59.793792","NORAD_CAT_ID":"51968","BSTAR":"0.00020004000000","TLE_LINE2":"2 51968  53.2192  43.7680 0002091  32.9714 327.1409 15.08844691 39115","ELEMENT_SET_NO":"999","REV_AT_EPOCH":"3911","OBJECT_ID":"2022-025N","DECAY_DATE":null,"GP_ID":"218237923","MEAN_ELEMENT_THEORY":"SGP4","RCS_SIZE":"LARGE","MEAN_ANOMALY":"327.1409","COUNTRY_CODE":"US","MEAN_MOTION_DDOT":"0.0000000000000","CLASSIFICATION_TYPE":"U","RA_OF_ASC_NODE":"43.7680","ARG_OF_PERICENTER":"32.9714","MEAN_MOTION":"15.08844691","PERIAPSIS":"538.285","OBJECT_NAME":"STARLINK-3681","EPHEMERIS_TYPE":"0","SEMIMAJOR_AXIS":"6917.866","PERIOD":"95.437","TIME_SYSTEM":"UTC","OBJECT_TYPE":"PAYLOAD","REF_FRAME":"TEME","ECCENTRICITY":"0.00020910","INCLINATION":"53.2192","SITE":"AFETR","CENTER_NAME":"EARTH","MEAN_MOTION_DOT":"0.00002897","LAUNCH_DATE":"2022-03-09","TLE_LINE1":"1 51968U 22025N   22323.53541428  .00002897  00000-0  20004-3 0  9999","FILE":"3663561"},{"MEAN_MOTION_DOT":"0.00000396","CENTER_NAME":"EARTH","SITE":"AFETR","FILE":"3663316","TLE_LINE1":"1 51969U 22025P   22323.35141871  .00000396  00000-0  43013-4 0  9996","LAUNCH_DATE":"2022-03-09","PERIOD":"95.438","EPHEMERIS_TYPE":"0","SEMIMAJOR_AXIS":"6917.898","OBJECT_NAME":"STARLINK-3680","PERIAPSIS":"538.233","INCLINATION":"53.2194","ECCENTRICITY":"0.00022110","REF_FRAME":"TEME","OBJECT_TYPE":"PAYLOAD","TIME_SYSTEM":"UTC","MEAN_MOTION_DDOT":"0.0000000000000","MEAN_MOTION":"15.08834341","ARG_OF_PERICENTER":"35.9980","RA_OF_ASC_NODE":"44.5977","CLASSIFICATION_TYPE":"U","ELEMENT_SET_NO":"999","TLE_LINE2":"2 51969  53.2194  44.5977 0002211  35.9980 324.1161 15.08834341 39087","NORAD_CAT_ID":"51969","BSTAR":"0.00004301300000","EPOCH":"2022-11-19T08:26:02.576544","APOAPSIS":"541.292","COUNTRY_CODE":"US","MEAN_ANOMALY":"324.1161","RCS_SIZE":"LARGE","GP_ID":"218207155","MEAN_ELEMENT_THEORY":"SGP4","DECAY_DATE":null,"OBJECT_ID":"2022-025P","REV_AT_EPOCH":"3908"},{"RCS_SIZE":"MEDIUM","MEAN_ELEMENT_THEORY":"SGP4","GP_ID":"218213570","OBJECT_ID":"2022-025Q","DECAY_DATE":null,"REV_AT_EPOCH":"4021","COUNTRY_CODE":"US","MEAN_ANOMALY":"313.7299","TLE_LINE2":"2 51970  53.2209  43.4908 0001692  46.3834 313.7299 15.08840632 40217","NORAD_CAT_ID":"51970","BSTAR":"-0.00007068800000","EPOCH":"2022-11-19T14:15:47.161440","APOAPSIS":"540.914","ELEMENT_SET_NO":"999","RA_OF_ASC_NODE":"43.4908","CLASSIFICATION_TYPE":"U","MEAN_MOTION":"15.08840632","ARG_OF_PERICENTER":"46.3834","MEAN_MOTION_DDOT":"0.0000000000000","OBJECT_TYPE":"PAYLOAD","TIME_SYSTEM":"UTC","INCLINATION":"53.2209","ECCENTRICITY":"0.00016920","REF_FRAME":"TEME","OBJECT_NAME":"STARLINK-3677","PERIAPSIS":"538.573","PERIOD":"95.438","SEMIMAJOR_AXIS":"6917.878","EPHEMERIS_TYPE":"0","LAUNCH_DATE":"2022-03-09","FILE":"3663517","TLE_LINE1":"1 51970U 22025Q   22323.59429585 -.00001413  00000-0 -70688-4 0  9996","SITE":"AFETR","MEAN_MOTION_DOT":"-0.00001413","CENTER_NAME":"EARTH"},{"FILE":"3663561","TLE_LINE1":"1 51971U 22025R   22323.60901048  .00002543  00000-0  17782-3 0  9996","LAUNCH_DATE":"2022-03-09","CENTER_NAME":"EARTH","MEAN_MOTION_DOT":"0.00002543","SITE":"AFETR","INCLINATION":"53.2205","REF_FRAME":"TEME","ECCENTRICITY":"0.00020980","OBJECT_TYPE":"PAYLOAD","TIME_SYSTEM":"UTC","PERIOD":"95.437","EPHEMERIS_TYPE":"0","SEMIMAJOR_AXIS":"6917.873","OBJECT_NAME":"STARLINK-3669","PERIAPSIS":"538.287","ARG_OF_PERICENTER":"33.5638","MEAN_MOTION":"15.08842438","RA_OF_ASC_NODE":"43.4296","CLASSIFICATION_TYPE":"U","MEAN_MOTION_DDOT":"0.0000000000000","COUNTRY_CODE":"US","MEAN_ANOMALY":"326.5487","GP_ID":"218237668","MEAN_ELEMENT_THEORY":"SGP4","RCS_SIZE":"MEDIUM","REV_AT_EPOCH":"3912","OBJECT_ID":"2022-025R","DECAY_DATE":null,"ELEMENT_SET_NO":"999","TLE_LINE2":"2 51971  53.2205  43.4296 0002098  33.5638 326.5487 15.08842438 39120","APOAPSIS":"541.189","EPOCH":"2022-11-19T14:36:58.505472","BSTAR":"0.00017782000000","NORAD_CAT_ID":"51971"},{"REF_FRAME":"TEME","ECCENTRICITY":"0.00020650","INCLINATION":"53.2195","TIME_SYSTEM":"UTC","OBJECT_TYPE":"PAYLOAD","EPHEMERIS_TYPE":"0","SEMIMAJOR_AXIS":"6917.874","PERIOD":"95.437","PERIAPSIS":"538.311","OBJECT_NAME":"STARLINK-3671","TLE_LINE1":"1 51972U 22025S   22323.72308832  .00000708  00000-0  62555-4 0  9992","FILE":"3663561","LAUNCH_DATE":"2022-03-09","CENTER_NAME":"EARTH","MEAN_MOTION_DOT":"0.00000708","SITE":"AFETR","MEAN_ANOMALY":"329.2677","COUNTRY_CODE":"US","REV_AT_EPOCH":"3914","DECAY_DATE":null,"OBJECT_ID":"2022-025S","GP_ID":"218238423","MEAN_ELEMENT_THEORY":"SGP4","RCS_SIZE":"LARGE","ELEMENT_SET_NO":"999","EPOCH":"2022-11-19T17:21:14.830848","APOAPSIS":"541.168","BSTAR":"0.00006255500000","NORAD_CAT_ID":"51972","TLE_LINE2":"2 51972  53.2195  42.9254 0002065  30.8436 329.2677 15.08841932 39148","ARG_OF_PERICENTER":"30.8436","MEAN_MOTION":"15.08841932","CLASSIFICATION_TYPE":"U","RA_OF_ASC_NODE":"42.9254","MEAN_MOTION_DDOT":"0.0000000000000"},{"OBJECT_NAME":"STARLINK-3679","PERIAPSIS":"538.254","PERIOD":"95.437","EPHEMERIS_TYPE":"0","SEMIMAJOR_AXIS":"6917.851","OBJECT_TYPE":"PAYLOAD","TIME_SYSTEM":"UTC","INCLINATION":"53.2184","ECCENTRICITY":"0.00021130","REF_FRAME":"TEME","SITE":"AFETR","CENTER_NAME":"EARTH","MEAN_MOTION_DOT":"0.00006770","LAUNCH_DATE":"2022-03-09","FILE":"3663517","TLE_LINE1":"1 51973U 22025T   22323.33301443  .00006770  00000-0  44295-3 0  9996","TLE_LINE2":"2 51973  53.2184  44.6598 0002113  37.4645 322.6494 15.08849658 40178","NORAD_CAT_ID":"51973","BSTAR":"0.00044295000000","APOAPSIS":"541.178","EPOCH":"2022-11-19T07:59:32.446752","ELEMENT_SET_NO":"999","RCS_SIZE":"LARGE","MEAN_ELEMENT_THEORY":"SGP4","GP_ID":"218213565","OBJECT_ID":"2022-025T","DECAY_DATE":null,"REV_AT_EPOCH":"4017","COUNTRY_CODE":"US","MEAN_ANOMALY":"322.6494","MEAN_MOTION_DDOT":"0.0000000000000","RA_OF_ASC_NODE":"44.6598","CLASSIFICATION_TYPE":"U","MEAN_MOTION":"15.08849658","ARG_OF_PERICENTER":"37.4645"},{"ELEMENT_SET_NO":"999","EPOCH":"2022-11-19T14:05:10.763232","APOAPSIS":"541.059","NORAD_CAT_ID":"51974","BSTAR":"0.00022033000000","TLE_LINE2":"2 51974  53.2173  43.5203 0001938  42.5874 317.5268 15.08848793 40208","MEAN_ANOMALY":"317.5268","COUNTRY_CODE":"US","REV_AT_EPOCH":"4020","OBJECT_ID":"2022-025U","DECAY_DATE":null,"GP_ID":"218213509","MEAN_ELEMENT_THEORY":"SGP4","RCS_SIZE":"MEDIUM","MEAN_MOTION_DDOT":"0.0000000000000","ARG_OF_PERICENTER":"42.5874","MEAN_MOTION":"15.08848793","CLASSIFICATION_TYPE":"U","RA_OF_ASC_NODE":"43.5203","SEMIMAJOR_AXIS":"6917.854","EPHEMERIS_TYPE":"0","PERIOD":"95.437","PERIAPSIS":"538.378","OBJECT_NAME":"STARLINK-3672","REF_FRAME":"TEME","ECCENTRICITY":"0.00019380","INCLINATION":"53.2173","TIME_SYSTEM":"UTC","OBJECT_TYPE":"PAYLOAD","MEAN_MOTION_DOT":"0.00003221","CENTER_NAME":"EARTH","SITE":"AFETR","TLE_LINE1":"1 51974U 22025U   22323.58693013  .00003221  00000-0  22033-3 0  9995","FILE":"3663519","LAUNCH_DATE":"2022-03-09"},{"MEAN_MOTION":"15.08838863","ARG_OF_PERICENTER":"28.6900","CLASSIFICATION_TYPE":"U","RA_OF_ASC_NODE":"43.8345","MEAN_MOTION_DDOT":"0.0000000000000","MEAN_ANOMALY":"331.4229","COUNTRY_CODE":"US","OBJECT_ID":"2022-025V","DECAY_DATE":null,"REV_AT_EPOCH":"3911","RCS_SIZE":"LARGE","GP_ID":"218238168","MEAN_ELEMENT_THEORY":"SGP4","ELEMENT_SET_NO":"999","BSTAR":"0.00005444600000","NORAD_CAT_ID":"51975","APOAPSIS":"541.477","EPOCH":"2022-11-19T12:31:10.947936","TLE_LINE2":"2 51975  53.2186  43.8345 0002498  28.6900 331.4229 15.08838863 39117","TLE_LINE1":"1 51975U 22025V   22323.52165449  .00000578  00000-0  54446-4 0  9993","FILE":"3663561","LAUNCH_DATE":"2022-03-09","MEAN_MOTION_DOT":"0.00000578","CENTER_NAME":"EARTH","SITE":"AFETR","ECCENTRICITY":"0.00024980","REF_FRAME":"TEME","INCLINATION":"53.2186","TIME_SYSTEM":"UTC","OBJECT_TYPE":"PAYLOAD","SEMIMAJOR_AXIS":"6917.884","EPHEMERIS_TYPE":"0","PERIOD":"95.438","PERIAPSIS":"538.021","OBJECT_NAME":"STARLINK-3674"},{"INCLINATION":"53.2190","REF_FRAME":"TEME","ECCENTRICITY":"0.00020600","OBJECT_TYPE":"PAYLOAD","TIME_SYSTEM":"UTC","PERIOD":"95.437","EPHEMERIS_TYPE":"0","SEMIMAJOR_AXIS":"6917.876","OBJECT_NAME":"STARLINK-3663","PERIAPSIS":"538.316","FILE":"3663521","TLE_LINE1":"1 51976U 22025W   22323.58600855  .00000155  00000-0  27840-4 0  9994","LAUNCH_DATE":"2022-03-09","MEAN_MOTION_DOT":"0.00000155","CENTER_NAME":"EARTH","SITE":"AFETR","COUNTRY_CODE":"US","MEAN_ANOMALY":"314.4126","MEAN_ELEMENT_THEORY":"SGP4","GP_ID":"218213614","RCS_SIZE":"LARGE","REV_AT_EPOCH":"4009","DECAY_DATE":null,"OBJECT_ID":"2022-025W","ELEMENT_SET_NO":"999","TLE_LINE2":"2 51976  53.2190  53.5434 0002060  45.7035 314.4126 15.08841307 40097","APOAPSIS":"541.166","EPOCH":"2022-11-19T14:03:51.138720","NORAD_CAT_ID":"51976","BSTAR":"0.00002784000000","ARG_OF_PERICENTER":"45.7035","MEAN_MOTION":"15.08841307","RA_OF_ASC_NODE":"53.5434","CLASSIFICATION_TYPE":"U","MEAN_MOTION_DDOT":"0.0000000000000"}];
